{
  "type": "FeatureCollection",
  "features": [
    {
      "type": "Feature",
      "properties": {
        "norad_id": 57400,
        "name": "TIANMU-1 08",
        "group": "weather",
        "lat": 17.760420518789072,
        "lon": 29.19438956604942,
        "alt_km": 481.4973451607384,
        "timestamp": "2025-12-07T18:50:16.368398+00:00",
        "meta_object_name": "TIANMU-1 08",
        "meta_object_id": "2023-101B",
        "meta_epoch": "2025-12-07T06:11:08.552832",
        "meta_mean_motion": 15.27938086,
        "meta_eccentricity": 0.00075575,
        "meta_inclination": 97.2867,
        "meta_ra_of_asc_node": 31.0279,
        "meta_arg_of_pericenter": 99.1458,
        "meta_mean_anomaly": 261.0637,
        "meta_ephemeris_type": 0,
        "meta_classification_type": "U",
        "meta_norad_cat_id": 57400,
        "meta_element_set_no": 999,
        "meta_rev_at_epoch": 13231,
        "meta_bstar": 0.00038957822,
        "meta_mean_motion_dot": 0.00010562,
        "meta_mean_motion_ddot": 0,
        "tle_line1": "1 57400U 23101B   25341.25773788  .00010562  00000+0  38958-3 0  9994",
        "tle_line2": "2 57400  97.2867  31.0279 0007557  99.1458 261.0637 15.27938086132313"
      },
      "geometry": {
        "type": "Point",
        "coordinates": [
          29.19438956604942,
          17.760420518789072
        ]
      }
    },
    {
      "type": "Feature",
      "properties": {
        "norad_id": 57401,
        "name": "TIANMU-1 09",
        "group": "weather",
        "lat": 82.70830719943909,
        "lon": -60.92629756281167,
        "alt_km": 469.7601693620991,
        "timestamp": "2025-12-07T18:50:16.368410+00:00",
        "meta_object_name": "TIANMU-1 09",
        "meta_object_id": "2023-101C",
        "meta_epoch": "2025-12-07T05:52:15.149856",
        "meta_mean_motion": 15.27962965,
        "meta_eccentricity": 0.00068022,
        "meta_inclination": 97.2823,
        "meta_ra_of_asc_node": 30.5315,
        "meta_arg_of_pericenter": 98.7343,
        "meta_mean_anomaly": 261.4668,
        "meta_ephemeris_type": 0,
        "meta_classification_type": "U",
        "meta_norad_cat_id": 57401,
        "meta_element_set_no": 999,
        "meta_rev_at_epoch": 13231,
        "meta_bstar": 0.00040270883,
        "meta_mean_motion_dot": 0.00010927,
        "meta_mean_motion_ddot": 0,
        "tle_line1": "1 57401U 23101C   25341.24461979  .00010927  00000+0  40271-3 0  9996",
        "tle_line2": "2 57401  97.2823  30.5315 0006802  98.7343 261.4668 15.27962965132312"
      },
      "geometry": {
        "type": "Point",
        "coordinates": [
          -60.92629756281167,
          82.70830719943909
        ]
      }
    },
    {
      "type": "Feature",
      "properties": {
        "norad_id": 57402,
        "name": "TIANMU-1 10",
        "group": "weather",
        "lat": -79.47261583690423,
        "lon": 168.36008650342683,
        "alt_km": 494.9324828057197,
        "timestamp": "2025-12-07T18:50:16.368421+00:00",
        "meta_object_name": "TIANMU-1 10",
        "meta_object_id": "2023-101D",
        "meta_epoch": "2025-12-07T06:41:28.745952",
        "meta_mean_motion": 15.27955208,
        "meta_eccentricity": 0.00085707,
        "meta_inclination": 97.2904,
        "meta_ra_of_asc_node": 31.4089,
        "meta_arg_of_pericenter": 99.2803,
        "meta_mean_anomaly": 260.9406,
        "meta_ephemeris_type": 0,
        "meta_classification_type": "U",
        "meta_norad_cat_id": 57402,
        "meta_element_set_no": 999,
        "meta_rev_at_epoch": 13231,
        "meta_bstar": 0.00042923581,
        "meta_mean_motion_dot": 0.00011655,
        "meta_mean_motion_ddot": 0,
        "tle_line1": "1 57402U 23101D   25341.27880493  .00011655  00000+0  42924-3 0  9992",
        "tle_line2": "2 57402  97.2904  31.4089 0008570  99.2803 260.9406 15.27955208132318"
      },
      "geometry": {
        "type": "Point",
        "coordinates": [
          168.36008650342683,
          -79.47261583690423
        ]
      }
    },
    {
      "type": "Feature",
      "properties": {
        "norad_id": 57490,
        "name": "FENGYUN 3F",
        "group": "weather",
        "lat": -70.66224334936229,
        "lon": 76.05707979368296,
        "alt_km": 833.4361461641265,
        "timestamp": "2025-12-07T18:50:16.368431+00:00",
        "meta_object_name": "FENGYUN 3F",
        "meta_object_id": "2023-111A",
        "meta_epoch": "2025-12-07T05:38:59.590752",
        "meta_mean_motion": 14.19891454,
        "meta_eccentricity": 6.661e-05,
        "meta_inclination": 98.7092,
        "meta_ra_of_asc_node": 49.6175,
        "meta_arg_of_pericenter": 91.4991,
        "meta_mean_anomaly": 268.6262,
        "meta_ephemeris_type": 0,
        "meta_classification_type": "U",
        "meta_norad_cat_id": 57490,
        "meta_element_set_no": 999,
        "meta_rev_at_epoch": 12162,
        "meta_bstar": 0.00011935179,
        "meta_mean_motion_dot": 2.1e-06,
        "meta_mean_motion_ddot": 0,
        "tle_line1": "1 57490U 23111A   25341.23541193  .00000210  00000+0  11935-3 0  9990",
        "tle_line2": "2 57490  98.7092  49.6175 0000666  91.4991 268.6262 14.19891454121625"
      },
      "geometry": {
        "type": "Point",
        "coordinates": [
          76.05707979368296,
          -70.66224334936229
        ]
      }
    },
    {
      "type": "Feature",
      "properties": {
        "norad_id": 58584,
        "name": "ARKTIKA-M 2",
        "group": "weather",
        "lat": 12.371443735176337,
        "lon": -10.93450680290579,
        "alt_km": 10019.238834980686,
        "timestamp": "2025-12-07T18:50:16.368443+00:00",
        "meta_object_name": "ARKTIKA-M 2",
        "meta_object_id": "2023-198A",
        "meta_epoch": "2025-12-06T20:18:59.579424",
        "meta_mean_motion": 2.00604738,
        "meta_eccentricity": 0.68644701,
        "meta_inclination": 63.2244,
        "meta_ra_of_asc_node": 175.5329,
        "meta_arg_of_pericenter": 268.127,
        "meta_mean_anomaly": 18.8311,
        "meta_ephemeris_type": 0,
        "meta_classification_type": "U",
        "meta_norad_cat_id": 58584,
        "meta_element_set_no": 999,
        "meta_rev_at_epoch": 1446,
        "meta_bstar": 0,
        "meta_mean_motion_dot": 1.78e-06,
        "meta_mean_motion_ddot": 0,
        "tle_line1": "1 58584U 23198A   25340.84652291  .00000178  00000+0  00000+0 0  9998",
        "tle_line2": "2 58584  63.2244 175.5329 6864470 268.1270  18.8311  2.00604738 14463"
      },
      "geometry": {
        "type": "Point",
        "coordinates": [
          -10.93450680290579,
          12.371443735176337
        ]
      }
    },
    {
      "type": "Feature",
      "properties": {
        "norad_id": 58645,
        "name": "TIANMU-1 11",
        "group": "weather",
        "lat": 36.38145835029545,
        "lon": -173.03951072060087,
        "alt_km": 495.5304295935748,
        "timestamp": "2025-12-07T18:50:16.368455+00:00",
        "meta_object_name": "TIANMU-1 11",
        "meta_object_id": "2023-205A",
        "meta_epoch": "2025-12-07T07:11:05.016768",
        "meta_mean_motion": 15.24500632,
        "meta_eccentricity": 0.00084181,
        "meta_inclination": 97.3604,
        "meta_ra_of_asc_node": 1.0185,
        "meta_arg_of_pericenter": 332.2497,
        "meta_mean_anomaly": 27.829,
        "meta_ephemeris_type": 0,
        "meta_classification_type": "U",
        "meta_norad_cat_id": 58645,
        "meta_element_set_no": 999,
        "meta_rev_at_epoch": 10826,
        "meta_bstar": 0.00037953704,
        "meta_mean_motion_dot": 9.272e-05,
        "meta_mean_motion_ddot": 0,
        "tle_line1": "1 58645U 23205A   25341.29936362  .00009272  00000+0  37954-3 0  9995",
        "tle_line2": "2 58645  97.3604   1.0185 0008418 332.2497  27.8290 15.24500632108268"
      },
      "geometry": {
        "type": "Point",
        "coordinates": [
          -173.03951072060087,
          36.38145835029545
        ]
      }
    },
    {
      "type": "Feature",
      "properties": {
        "norad_id": 58646,
        "name": "TIANMU-1 12",
        "group": "weather",
        "lat": -2.587699479818978,
        "lon": 1.6373046228165373,
        "alt_km": 492.77075957633406,
        "timestamp": "2025-12-07T18:50:16.368465+00:00",
        "meta_object_name": "TIANMU-1 12",
        "meta_object_id": "2023-205B",
        "meta_epoch": "2025-12-07T06:14:46.523616",
        "meta_mean_motion": 15.24415907,
        "meta_eccentricity": 0.00062541,
        "meta_inclination": 97.3591,
        "meta_ra_of_asc_node": 0.7874,
        "meta_arg_of_pericenter": 316.7947,
        "meta_mean_anomaly": 43.28,
        "meta_ephemeris_type": 0,
        "meta_classification_type": "U",
        "meta_norad_cat_id": 58646,
        "meta_element_set_no": 999,
        "meta_rev_at_epoch": 10824,
        "meta_bstar": 0.00040919586,
        "meta_mean_motion_dot": 9.973e-05,
        "meta_mean_motion_ddot": 0,
        "tle_line1": "1 58646U 23205B   25341.26026069  .00009973  00000+0  40920-3 0  9992",
        "tle_line2": "2 58646  97.3591   0.7874 0006254 316.7947  43.2800 15.24415907108245"
      },
      "geometry": {
        "type": "Point",
        "coordinates": [
          1.6373046228165373,
          -2.587699479818978
        ]
      }
    }
  ]
}